{
    "links": {
        "self": "http://www.neowsapp.com/rest/v1/neo/3791340?api_key=iIulBulltgU6a56xZRHN4H3l9WmuAYTsLGpBGhQ2"
    },
    "id": "3791340",
    "neo_reference_id": "3791340",
    "name": "(2017 XP60)",
    "designation": "2017 XP60",
    "nasa_jpl_url": "http://ssd.jpl.nasa.gov/sbdb.cgi?sstr=3791340",
    "absolute_magnitude_h": 23.2,
    "estimated_diameter": {
        "kilometers": {
            "estimated_diameter_min": 0.0608912622,
            "estimated_diameter_max": 0.1361570015
        },
        "meters": {
            "estimated_diameter_min": 60.8912622106,
            "estimated_diameter_max": 136.1570015386
        },
        "miles": {
            "estimated_diameter_min": 0.0378360645,
            "estimated_diameter_max": 0.0846040122
        },
        "feet": {
            "estimated_diameter_min": 199.7744887109,
            "estimated_diameter_max": 446.7093369279
        }
    },
    "is_potentially_hazardous_asteroid": false,
    "close_approach_data": [
        {
            "close_approach_date": "2017-12-10",
            "close_approach_date_full": "2017-Dec-10 14:01",
            "epoch_date_close_approach": 1512914460000,
            "relative_velocity": {
                "kilometers_per_second": "22.3170756919",
                "kilometers_per_hour": "80341.4724909847",
                "miles_per_hour": "49921.066615301"
            },
            "miss_distance": {
                "astronomical": "0.0756921419",
                "lunar": "29.4442431991",
                "kilometers": "11323383.203977753",
                "miles": "7036024.0581808714"
            },
            "orbiting_body": "Earth"
        }
    ],
    "orbital_data": {
        "orbit_id": "4",
        "orbit_determination_date": "2017-12-28 06:24:32",
        "first_observation_date": "2017-12-13",
        "last_observation_date": "2017-12-28",
        "data_arc_in_days": 15,
        "observations_used": 52,
        "orbit_uncertainty": "8",
        "minimum_orbit_intersection": ".00764077",
        "jupiter_tisserand_invariant": "2.946",
        "epoch_osculation": "2458105.5",
        "eccentricity": ".7894958206192274",
        "semi_major_axis": "2.477156105327734",
        "inclination": "3.563843483186216",
        "ascending_node_longitude": "66.19147346591777",
        "orbital_period": "1424.060664760395",
        "perihelion_distance": ".5214517131500852",
        "perihelion_argument": "282.8547408054982",
        "aphelion_distance": "4.432860497505382",
        "perihelion_time": "2458054.539843261208",
        "mean_anomaly": "12.88263687070654",
        "mean_motion": ".2527982191408762",
        "equinox": "J2000",
        "orbit_class": {
            "orbit_class_type": "APO",
            "orbit_class_description": "Near-Earth asteroid orbits which cross the Earth’s orbit similar to that of 1862 Apollo",
            "orbit_class_range": "a (semi-major axis) > 1.0 AU; q (perihelion) < 1.017 AU"
        }
    },
    "is_sentry_object": false
}